satname,norad_id,inclination_deg,eccentricity,mean_motion_rev_per_day,perigee_km,apogee_km,l1,l2
STARLINK-1133,45064,53.0541,0.0001437,15.06398451,546.2211321342629,548.2114786742359,1 45064U 20006W   25280.30353309  .00001571  00000+0  12438-3 0  9994,2 45064  53.0541 235.1926 0001437  90.2450 269.8704 15.06398451313625
STARLINK-1167,45071,53.0532,0.0001317,15.06401044,546.2962902468098,548.1204262141682,1 45071U 20006AD  25280.26298338  .00002558  00000+0  19054-3 0  9994,2 45071  53.0532 235.3785 0001317  94.1576 265.9564 15.06401044313610
STARLINK-1168,45072,53.0537,0.000138,15.06398322,546.2610019606691,548.1723995820812,1 45072U 20006AE  25280.26667485 -.00001358  00000+0 -72270-4 0  9997,2 45072  53.0537 235.3612 0001380  89.1641 270.9506 15.06398322313618
STARLINK-1172,45074,53.054,0.0001473,15.06388157,546.2277460761943,548.267964454556,1 45074U 20006AG  25280.27773355  .00002075  00000+0  15818-3 0  9993,2 45074  53.0540 235.3124 0001473  97.8942 262.2214 15.06388157313610
STARLINK-1153,45080,53.0546,0.0001351,15.06384544,546.3233077672594,548.1945497472097,1 45080U 20006AN  25280.25562245  .00000213  00000+0  33221-4 0  9993,2 45080  53.0546 235.4135 0001351  93.9651 266.1493 15.06384544313613
STARLINK-1151,45081,53.0547,0.0001406,15.06403742,546.2263868762138,548.1737916657166,1 45081U 20006AP  25280.17453057  .00002685  00000+0  19905-3 0  9992,2 45081  53.0547 235.8489 0001406  91.4481 268.6669 15.06403742313609
STARLINK-1190,45083,53.0472,0.0007691,15.78908316,328.3706167630835,338.69450688308007,1 45083U 20006AR  25280.48678755  .00170635  00000+0  92915-3 0  9995,2 45083  53.0472 198.5404 0007691  99.1231 261.0660 15.78908316314155
STARLINK-1173,45084,53.0413,0.0003302,15.93232576,291.04078991766346,295.44656971861514,1 45084U 20006AS  25280.39120177  .00339824  55558-4  94625-3 0  9996,2 45084  53.0413 161.5516 0003302  74.7181 285.4210 15.93232576314665
STARLINK-1185,45087,53.0541,0.0001357,15.06394939,546.2872973135945,548.1668411219798,1 45087U 20006AV  25280.15057473  .00002090  00000+0  15918-3 0  9998,2 45087  53.0541 215.8796 0001357  85.0927 275.0217 15.06394939313885
STARLINK-1183,45088,53.0535,0.0001234,15.064034,546.346550721406,548.0557241737288,1 45088U 20006AW  25280.83614412  .00002562  00000+0  19083-3 0  9997,2 45088  53.0535 212.8033 0001234  95.3225 264.7904 15.06403400313982
STARLINK-1176,45090,53.0457,0.0001288,15.89996995,301.4308376908384,303.15171601495604,1 45090U 20006AY  25280.39092119  .00321331  00000+0  10124-2 0  9999,2 45090  53.0457 159.6059 0001288  53.1764 306.9379 15.89996995314694
STARLINK-1142,45093,53.0367,0.0004732,15.54412422,400.65194257003805,407.07042565148004,1 45093U 20006BB  25280.65348150  .00110135  00000+0  16325-2 0  9997,2 45093  53.0367 155.6171 0004732 143.6763 216.4568 15.54412422314773
STARLINK-1147,45095,53.0341,0.0001269,16.08109628,251.19278976316036,252.87552720318308,1 45095U 20006BD  25280.92251177  .00791629  34374-3  92979-3 0  9999,2 45095  53.0341 152.0040 0001269 199.9807 160.1176 16.08109628314847
STARLINK-1152,45096,53.0476,0.0008821,15.22482223,492.2904961737677,504.4220055669539,1 45096U 20006BE  25280.83667389  .00027469  00000+0  11797-2 0  9993,2 45096  53.0476 197.7806 0008821  96.5309 263.6691 15.22482223314192
STARLINK-1184,45098,53.0559,0.000159,15.06390404,546.1398333553407,548.3421035493084,1 45098U 20006BG  25280.12108654  .00001685  00000+0  13201-3 0  9997,2 45098  53.0559 216.0172 0001590  92.3022 267.8150 15.06390404313870
STARLINK-1193,45100,53.0548,0.0001472,15.06388844,546.2263333417786,548.265166023285,1 45100U 20006BJ  25280.11739678 -.00001720  00000+0 -96632-4 0  9998,2 45100  53.0548 216.0313 0001472  89.8837 270.2321 15.06388844313876
STARLINK-1143,45179,53.0554,0.00052,15.36710631,452.2904944928632,459.39783490414993,1 45179U 20012B   25280.41974040  .00073968  00000+0  20230-2 0  9998,2 45179  53.0554 343.8484 0005200 305.3290  54.7226 15.36710631312176
STARLINK-1202,45183,53.0565,0.0001415,15.06412271,546.1940178465902,548.1538808452551,1 45183U 20012F   25280.64447036  .00002286  00000+0  17225-3 0  9994,2 45183  53.0565  13.6665 0001415  83.6487 276.4663 15.06412271311773
STARLINK-1216,45185,53.0564,0.0001664,15.06409188,546.0310248704636,548.3357714989788,1 45185U 20012H   25280.63710904  .00005816  00000+0  40892-3 0  9990,2 45185  53.0564  13.6986 0001664  95.4104 264.7074 15.06409188311716
STARLINK-1225,45187,53.0572,0.0001784,15.06413961,545.9332952651548,548.4042443638245,1 45187U 20012K   25280.52284482  .00007793  00000+0  54126-3 0  9998,2 45187  53.0572  14.2103 0001784  89.9002 270.2192 15.06413961311743
STARLINK-1230,45189,53.0536,0.0001279,15.06392923,546.3474931541987,548.1190028636402,1 45189U 20012M   25280.59288243  .00003151  00000+0  23039-3 0  9999,2 45189  53.0536  13.8998 0001279  87.1742 272.9393 15.06392923308980
STARLINK-1234,45190,53.0548,0.0001411,15.06401898,546.2285749870143,548.1829067084809,1 45190U 20012N   25280.54496613  .00012051  00000+0  82651-3 0  9992,2 45190  53.0548 334.1143 0001411  78.0730 282.0417 15.06401898312212
STARLINK-1269,45197,53.0566,0.0002014,15.06421798,545.7499992687044,548.5395027580116,1 45197U 20012V   25280.67027639  .00011279  00000+0  77444-3 0  9996,2 45197  53.0566  13.5529 0002014  92.2063 267.9156 15.06421798311742
STARLINK-1154,45198,53.0564,0.0001483,15.06414264,546.140818469682,548.1948638855747,1 45198U 20012W   25280.46203958  .00008679  00000+0  60061-3 0  9991,2 45198  53.0564 354.4881 0001483  87.6060 272.5099 15.06414264311965
STARLINK-1199,45201,53.0551,0.0001709,15.06410164,545.996870172472,548.363943662157,1 45201U 20012Z   25280.60578352  .00011357  00000+0  77990-3 0  9991,2 45201  53.0551 353.8416 0001709  95.7105 264.4079 15.06410164312047
STARLINK-1209,45206,53.0542,0.0001414,15.06410153,546.2012007442454,548.1596805164545,1 45206U 20012AE  25280.41595861  .00011914  00000+0  81715-3 0  9998,2 45206  53.0542 334.6958 0001414  80.1795 279.9353 15.06410153311342
STARLINK-1210,45207,53.0256,0.0013053,15.50637045,405.9980233520437,423.7318341872897,1 45207U 20012AF  25280.44162477  .00129783  00000+0  21906-2 0  9994,2 45207  53.0256 302.5108 0013053 326.4819  33.5362 15.50637045312751
STARLINK-1231,45212,53.054,0.0003021,15.1035647,533.0235330863743,537.2005181476525,1 45212U 20012AL  25280.50013082  .00019990  00000+0  12188-2 0  9994,2 45212  53.0540 353.4742 0003021 297.1647  62.9036 15.10356470311994
STARLINK-1271,45217,53.0552,0.0001419,15.06406343,546.2094134232602,548.1748218268431,1 45217U 20012AR  25280.59103681  .00011593  00000+0  79578-3 0  9991,2 45217  53.0552 353.9063 0001419  94.5897 265.5254 15.06406343312048
STARLINK-1191,45222,53.0549,0.0001413,15.06412879,546.1935397655734,548.1506321132592,1 45222U 20012AW  25280.53390433  .00009654  00000+0  66586-3 0  9994,2 45222  53.0549 334.1637 0001413  88.9926 271.1224 15.06412879312313
STARLINK-1212,45223,53.0544,0.0001512,15.06429446,546.0742126026116,548.1684107160563,1 45223U 20012AX  25280.41972326  .00011258  00000+0  77287-3 0  9992,2 45223  53.0544 335.3304 0001512  83.7322 276.3839 15.06429446312290
STARLINK-1215,45225,53.055,0.0001329,15.06401151,546.2876519367728,548.1284086458245,1 45225U 20012AZ  25280.83982522  .00001324  00000+0  10779-3 0  9995,2 45225  53.0550 332.7881 0001329  90.0261 270.0880 15.06401151312312
STARLINK-1217,45226,53.0382,0.0001813,16.01773756,268.30135017224165,270.7117857299809,1 45226U 20012BA  25280.44659161  .00557122  15121-3  96303-3 0  9996,2 45226  53.0382 275.2130 0001813  70.8146 289.3080 16.01773756313045
STARLINK-1221,45227,53.068,0.0001899,15.35779414,457.3081025660895,459.9046977094622,1 45227U 20012BB  25280.37898615  .00017606  00000+0  50825-3 0  9991,2 45227  53.0680 272.7208 0001899 247.7520 112.3281 15.35779414313108
STARLINK-1222,45228,53.0547,0.0001453,15.06398135,546.2110199245681,548.2235278765629,1 45228U 20012BC  25280.47493393  .00005287  00000+0  37360-3 0  9998,2 45228  53.0547 334.4281 0001453  83.4805 276.6350 15.06398135312199
STARLINK-1226,45229,53.0542,0.0001371,15.0641006,546.2312645985812,548.1301867189559,1 45229U 20012BD  25280.83614801  .00001474  00000+0  11779-3 0  9998,2 45229  53.0542 332.8047 0001371  91.8779 268.2367 15.06410060312253
STARLINK-1227,45230,53.0552,0.0001535,15.06406058,546.1299529493772,548.2560292566459,1 45230U 20012BE  25280.56707650  .00003504  00000+0  25396-3 0  9991,2 45230  53.0552 334.0131 0001535  92.4047 267.7118 15.06406058312330
STARLINK-1246,45235,53.0554,0.0001358,15.06408825,546.2440520551982,548.1249693775089,1 45235U 20012BK  25280.58180618  .00004017  00000+0  28837-3 0  9990,2 45235  53.0554  13.9467 0001358  96.3756 263.7388 15.06408825311782
STARLINK-1247,45236,53.027,0.0004947,16.33520965,179.8487335837608,186.3404161039116,1 45236U 20012BL  25280.52662347  .05486024  12131-4  82550-3 0  9991,2 45236  53.0270 269.2240 0004947 205.0267 155.0538 16.33520965313217
STARLINK-1270,45237,53.0554,0.0001482,15.06401967,546.1791936102836,548.2318651359901,1 45237U 20012BM  25280.38646954  .00002182  00000+0  16532-3 0  9990,2 45237  53.0554 334.8250 0001482  73.4443 286.6709 15.06401967312294
STARLINK-1279,45360,53.0523,0.0001033,15.06446648,546.3532184884325,547.7839659637866,1 45360U 20019A   25280.54402978  .00014488  00000+0  98826-3 0  9996,2 45360  53.0523 104.1137 0001033  83.3994 276.7112 15.06446648307053
STARLINK-1301,45361,53.0514,0.0001329,15.06378631,546.3566640923336,548.197439147255,1 45361U 20019B   25280.53207549  .00006313  00000+0  44260-3 0  9994,2 45361  53.0514 114.1702 0001329  92.5127 267.6014 15.06378631306922
STARLINK-1306,45362,53.0483,0.0008918,15.60912095,378.989781014805,391.05254991873153,1 45362U 20019C   25280.25963993  .00190670  00000+0  21871-2 0  9998,2 45362  53.0483 112.8831 0008918 147.2190 212.9377 15.60912095306917
